ORBCOMM FM115           
1 41186U 15081H   24332.33458041  .00003117  00000+0  65388-3 0  9991
2 41186  46.9982 279.0563 0000780 242.4443 117.6365 14.61713061478233
ORBCOMM FM117           
1 41188U 15081K   24332.51156427  .00003330  00000+0  76227-3 0  9997
2 41188  47.0014 337.7924 0001746 101.9489 258.1592 14.57492147477414
ORBCOMM FM116           
1 41189U 15081L   24332.56956207  .00003462  00000+0  79147-3 0  9997
2 41189  47.0020  67.3541 0002796 222.0129 138.0542 14.57470319476232
